SHIYAN-1 (SY-1)         
1 28220U 04012A   26068.73650539  .00016393  00000+0  54854-3 0  9991
2 28220  97.8764 140.5238 0005873  23.6952 336.4557 15.31043463195862
STARLINK-34597          
1 64738U 25144Q   26068.60834185  .00018832  00000+0  64685-3 0  9994
2 64738  53.1586 181.1166 0001046 100.1290 259.9829 15.30174017 39685
