[{"OBJECT_NAME":"SHIYAN-1 (SY-1)","OBJECT_ID":"2004-012A","EPOCH":"2026-03-09T17:40:34.066560","MEAN_MOTION":15.31043463,"ECCENTRICITY":0.00058726,"INCLINATION":97.8764,"RA_OF_ASC_NODE":140.5238,"ARG_OF_PERICENTER":23.6952,"MEAN_ANOMALY":336.4557,"EPHEMERIS_TYPE":0,"CLASSIFICATION_TYPE":"U","NORAD_CAT_ID":28220,"ELEMENT_SET_NO":999,"REV_AT_EPOCH":19586,"BSTAR":0.00054854449,"MEAN_MOTION_DOT":0.00016393,"MEAN_MOTION_DDOT":0},{"OBJECT_NAME":"STARLINK-34597","OBJECT_ID":"2025-144Q","EPOCH":"2026-03-09T14:36:00.735840","MEAN_MOTION":15.30174017,"ECCENTRICITY":0.0001046,"INCLINATION":53.1586,"RA_OF_ASC_NODE":181.1166,"ARG_OF_PERICENTER":100.129,"MEAN_ANOMALY":259.9829,"EPHEMERIS_TYPE":0,"CLASSIFICATION_TYPE":"U","NORAD_CAT_ID":64738,"ELEMENT_SET_NO":999,"REV_AT_EPOCH":3968,"BSTAR":0.00064685,"MEAN_MOTION_DOT":0.00018832,"MEAN_MOTION_DDOT":0}]
